{"fetched_at":"2026-03-29T16:36:15Z","count":15609,"tles":[{"name":"STARLINK-35702","line1":"1 66876U 25281AE  26087.76730915  .00036068  00000+0  13125-2 0  9998","line2":"2 66876  42.9987 235.6902 0001395 272.1563  87.9129 15.27611575 19090","category":"Starlink"}]}